ONEWEB-0328             
1 49197U 21083M   24151.38598288 -.00000067  00000+0 -21714-3 0  9990
2 49197  87.8912 109.0805 0002019  81.4276 278.7082 13.13469486132735
ONEWEB-0331             
1 49198U 21083N   24151.46139668  .00000047  00000+0  85435-4 0  9990
2 49198  87.9130 124.3025 0001878  83.3515 276.7831 13.18683756131464
ONEWEB-0333             
1 49199U 21083P   24151.38122212 -.00000138  00000+0 -41161-3 0  9999
2 49199  87.8918 109.1062 0002143  88.7243 271.4132 13.13469262132740
ONEWEB-0334             
1 49200U 21083Q   24151.31569623  .00000030  00000+0  41294-4 0  9993
2 49200  87.9217  63.2816 0002396 100.1299 260.0104 13.20769708138074
ONEWEB-0335             
1 49201U 21083R   24151.37645652 -.00001303  00000+0 -36054-2 0  9999
2 49201  87.8922 109.0952 0002005  80.5528 279.5828 13.13459812132751
ONEWEB-0336             
1 49202U 21083S   24151.42249070  .00000231  00000+0  59813-3 0  9996
2 49202  87.8918 109.0833 0002033  89.2809 270.8553 13.13468588132753
ONEWEB-0337             
1 49203U 21083T   24151.43186420 -.00000047  00000+0 -16329-3 0  9999
2 49203  87.8921 109.0797 0002013  79.0645 281.0711 13.13468537132754
ONEWEB-0338             
1 49204U 21083U   24151.32200760  .00000096  00000+0  20369-3 0  9993
2 49204  87.9223  63.2629 0002352  84.5352 275.6049 13.20770320138098
ONEWEB-0339             
1 49205U 21083V   24151.44311457 -.00000421  00000+0 -11883-2 0  9997
2 49205  87.8918 109.0730 0002147  79.7810 280.3561 13.13468937132735
ONEWEB-0340             
1 49206U 21083W   24151.44717004  .00000112  00000+0  25160-3 0  9995
2 49206  87.9130 124.3002 0001894  83.5911 276.5437 13.18687156131423
ONEWEB-0341             
1 49207U 21083X   24151.45506494  .00000041  00000+0  71510-4 0  9998
2 49207  87.9129 124.3125 0002510  69.3770 290.7631 13.18688872131441
ONEWEB-0342             
1 49208U 21083Y   24151.17680436  .00000097  00000+0  20678-3 0  9996
2 49208  87.9213  63.3030 0002125  82.4471 277.6904 13.20769667138044
ONEWEB-0343             
1 49209U 21083Z   24151.45033534  .00000030  00000+0  42723-4 0  9992
2 49209  87.9123 124.3218 0002507  74.1099 286.0309 13.18683976131499
ONEWEB-0344             
1 49210U 21083AA  24151.40978120  .00000293  00000+0  76787-3 0  9995
2 49210  87.8918 109.0968 0002031  69.3540 290.7807 13.13468622132730
ONEWEB-0345             
1 49211U 21083AB  24151.42724187  .00000167  00000+0  42370-3 0  9991
2 49211  87.8919 109.0687 0002008  67.7851 292.3491 13.13467497132748
ONEWEB-0346             
1 49212U 21083AC  24151.45981609 -.00000009  00000+0 -55078-4 0  9996
2 49212  87.9130 124.3205 0001611  81.0342 279.0972 13.18687807131439
ONEWEB-0348             
1 49213U 21083AD  24151.31883020  .00000138  00000+0  30843-3 0  9993
2 49213  87.9223  63.2453 0001607  58.8897 301.2393 13.20771146138098
ONEWEB-0350             
1 49214U 21083AE  24151.43676787 -.00000102  00000+0 -31338-3 0  9990
2 49214  87.8917 109.0576 0002022  76.2437 283.8917 13.13469092132771
ONEWEB-0351             
1 49215U 21083AF  24151.31240760  .00000056  00000+0  10580-3 0  9998
2 49215  87.9218  63.2466 0002791  93.7673 266.3780 13.20772357138055
ONEWEB-0352             
1 49216U 21083AG  24151.41772292  .00000349  00000+0  92074-3 0  9993
2 49216  87.8921 109.0925 0002325  85.5287 274.6108 13.13467413132863
ONEWEB-0354             
1 49217U 21083AH  24151.26203325  .00000054  00000+0  10128-3 0  9996
2 49217  87.9225  63.2413 0002074  70.7308 289.4049 13.20769589138081
ONEWEB-0355             
1 49218U 21083AJ  24151.37170081 -.00000291  00000+0 -83312-3 0  9991
2 49218  87.8922 109.1003 0002166  82.6334 277.5041 13.13469255132738
ONEWEB-0357             
1 49219U 21083AK  24151.25886783  .00000001  00000+0 -30298-4 0  9996
2 49219  87.9217  63.2605 0002195  77.2439 282.8939 13.20769418138084
ONEWEB-0332             
1 49279U 21090A   24151.36139891 -.00000198  00000+0 -56766-3 0  9998
2 49279  87.8968  78.5121 0002170  92.5236 267.6142 13.14501370129331
ONEWEB-0347             
1 49280U 21090B   24151.32514718  .00001623  00000+0  39587-2 0  9994
2 49280  87.9220  63.2468 0002338  92.7391 267.4010 13.20784339132320
ONEWEB-0349             
1 49281U 21090C   24151.28095944  .00000021  00000+0  19798-4 0  9990
2 49281  87.9223  63.2541 0001886  71.3799 288.7539 13.20771874131105
ONEWEB-0353             
1 49282U 21090D   24151.35347141 -.00000093  00000+0 -28623-3 0  9995
2 49282  87.8968  78.4985 0002147  89.3562 270.7814 13.14501960129338
ONEWEB-0356             
1 49283U 21090E   24151.27937402 -.00000055  00000+0 -16603-3 0  9995
2 49283  87.9222  63.2491 0001008  90.5497 269.5752 13.20770047131109
ONEWEB-0358             
1 49284U 21090F   24151.30935812  .00000048  00000+0  86776-4 0  9992
2 49284  87.9223  63.2293 0001694  70.7403 289.3914 13.20770820131838
ONEWEB-0359             
1 49285U 21090G   24151.30621848  .00000098  00000+0  20981-3 0  9994
2 49285  87.9221  63.2485 0002063  65.9887 294.1462 13.20770009131812
ONEWEB-0360             
1 49286U 21090H   24151.29675429 -.00000002  00000+0 -36132-4 0  9990
2 49286  87.9221  63.2553 0001981  73.9771 286.1580 13.20770616131128
ONEWEB-0361             
1 49287U 21090J   24151.27779925  .00000018  00000+0  12853-4 0  9994
2 49287  87.9222  63.2535 0001815  82.1919 277.9420 13.20770343131579
ONEWEB-0362             
1 49288U 21090K   24151.32038693  .00000127  00000+0  28570-3 0  9994
2 49288  87.9147  93.8157 0002413  79.7420 280.3984 13.19725638128270
ONEWEB-0363             
1 49289U 21090L   24151.29355524  .00000057  00000+0  10774-3 0  9995
2 49289  87.9221  63.2456 0001535  78.4237 281.7069 13.20777085131585
ONEWEB-0364             
1 49290U 21090M   24151.25569657  .00000073  00000+0  14734-3 0  9995
2 49290  87.9223  63.2780 0001862  82.1392 277.9953 13.20771137132713
ONEWEB-0365             
1 49291U 21090N   24151.40567138  .00000102  00000+0  22253-3 0  9993
2 49291  87.9139  93.7804 0002182  83.5355 276.6026 13.19723414127797
ONEWEB-0366             
1 49292U 21090P   24151.35030020 -.00000031  00000+0 -11929-3 0  9994
2 49292  87.8969  78.5080 0001956  86.3406 273.7947 13.14501973129310
ONEWEB-0367             
1 49293U 21090Q   24151.29201313  .00000010  00000+0 -61305-5 0  9994
2 49293  87.9222  63.2404 0001953  87.3665 272.7692 13.20769795131101
ONEWEB-0368             
1 49294U 21090R   24151.26517218  .00000054  00000+0  10067-3 0  9990
2 49294  87.9223  63.2760 0001715 105.7828 254.3494 13.20770068132258
ONEWEB-0369             
1 49295U 21090S   24151.40092734  .00000117  00000+0  25914-3 0  9995
2 49295  87.9149  93.7831 0002183  87.1195 273.0188 13.19728451127780
ONEWEB-0370             
1 49296U 21090T   24151.22573110  .00000024  00000+0  27463-4 0  9997
2 49296  87.9223  63.2576 0002103  69.0203 291.1156 13.20772037131134
ONEWEB-0371             
1 49297U 21090U   24151.33302123  .00000083  00000+0  17536-3 0  9998
2 49297  87.9146  93.7865 0002234  81.9257 278.2130 13.19724946127817
ONEWEB-0372             
1 49298U 21090V   24151.29030477  .00000020  00000+0  16215-4 0  9999
2 49298  87.9223  63.2532 0002075  81.1329 279.0039 13.20773561131116
ONEWEB-0373             
1 49299U 21090W   24151.31726366  .00000119  00000+0  26090-3 0  9992
2 49299  87.9221  63.2642 0001696  88.7598 271.3730 13.20770857132306
ONEWEB-0374             
1 49300U 21090X   24151.33761104  .00000255  00000+0  65304-3 0  9998
2 49300  87.8966  78.4963 0001944  82.9463 277.1888 13.14501798129315
ONEWEB-0375             
1 49301U 21090Y   24151.30462776  .00000074  00000+0  15085-3 0  9999
2 49301  87.9222  63.2427 0001227  72.4841 287.6426 13.20770699131803
ONEWEB-0376             
1 49302U 21090Z   24151.40725281  .00000074  00000+0  15347-3 0  9995
2 49302  87.9141  93.7812 0002295  87.6748 272.4647 13.19722679127827
ONEWEB-0377             
1 49303U 21090AA  24151.29057597 -.00000008  00000+0 -50922-4 0  9999
2 49303  87.9222  63.2373 0001977  72.1789 287.9559 13.20773139131795
ONEWEB-0378             
1 49304U 21090AB  24151.31266065  .00000147  00000+0  32931-3 0  9996
2 49304  87.9224  63.2352 0001794  80.2254 279.9082 13.20773226131068
ONEWEB-0379             
1 49305U 21090AC  24151.33284940 -.00000036  00000+0 -13048-3 0  9998
2 49305  87.8965  78.5004 0001974  82.3680 277.7674 13.14502337129313
ONEWEB-0380             
1 49306U 21090AD  24151.40408674  .00000122  00000+0  27236-3 0  9997
2 49306  87.9148  93.7851 0002070  80.4235 279.7132 13.19728475127799
ONEWEB-0381             
1 49307U 21090AE  24151.43879945  .00000032  00000+0  45897-4 0  9998
2 49307  87.9223  63.2142 0001919  76.3627 283.7720 13.20771476131120
ONEWEB-0382             
1 49308U 21090AF  24151.27465480  .00000061  00000+0  11857-3 0  9996
2 49308  87.9221  63.2443 0001470  83.1296 277.0004 13.20772327131096
ONEWEB-0383             
1 49309U 21090AG  24151.32650993  .00000292  00000+0  75358-3 0  9990
2 49309  87.8965  78.4898 0001857  85.9664 274.1678 13.14501619129348
ONEWEB-0384             
1 49310U 21090AH  24151.27148903  .00000063  00000+0  12261-3 0  9999
2 49310  87.9225  63.2558 0001391  86.8172 273.3120 13.20773073131104
ONEWEB-0385             
1 49311U 21090AJ  24151.26675690  .00000084  00000+0  17515-3 0  9997
2 49311  87.9223  63.2584 0001539  79.3149 280.8157 13.20769173131072
ONEWEB-0386             
1 49312U 21090AK  24151.28411786  .00000063  00000+0  12385-3 0  9991
2 49312  87.9217  63.2507 0001643  85.8236 274.3085 13.20768027131093
ONEWEB-0387             
1 49313U 21090AL  24151.26833789 -.00000003  00000+0 -40404-4 0  9991
2 49313  87.9223  63.3154 0001686  68.8536 291.2778 13.20769294131095
ONEWEB-0388             
1 49314U 21090AM  24151.39935359  .00000145  00000+0  32889-3 0  9994
2 49314  87.9148  93.7896 0001959  87.2507 272.8850 13.19728309127785
